City,Nom,Adresse,Contact,phone,WhatsApp,phone2,Email,Coordinates,Lundi,,Mardi,,Mercredi,,Jeudi,,Vendredi ,,Samedi,,Dimanche
Casablanca,Mribeh Change,"N°37 Bd Dakhla Jamila 3 CD, Casablanca",,,,05 22 38 21 10,mribehchange@gmail.com,"33.5424948,-7.5794243",09:00–13:00,15:00-19:00,09:00–13:00,15:00-19:00,09:00–13:00,15:00-19:00,09:00–13:00,15:00-19:00,15:30-19:00,,Fermé,,Fermé
Casablanca,Sbata Change,"NR 96 Boulevard Dakhla CD JAMILA5, Casablanca",,06 61 48 37 96,06 61 48 37 96,05 22 59 76 78,changesbata2096@gmail.com,"33.5436396,-7.5785446",08:30-19:00,,08:30-19:00,,08:30-19:00,,08:30-19:00,,08:30-19:00,,08:30-19:00,,09:00-17:00
Casablanca,Laazib Cash,"N 1477, Bd Mohammed VI, Casablanca 25000",,06 78 09 95 06,06 78 09 95 06,05 22 56 66 88,laazibcash12@gmail.com,"33.545986,-7.583403",09:00-18:30,,09:00-18:30,,09:00-18:30,,09:00-18:30,,09:00-18:30,,09:00-18:30,,Fermé
Casablanca,Mega Change,"25 bd Al Qods , Casablanca",,,,05 22 21 14 23,,"33.5440418,-7.5860829",09:00-19:00,,09:00-19:00,,09:00-19:00,,09:00-19:00,,09:00-19:00,,09:00-19:00,,Fermé
Casablanca,Saraf Al inara,"6 bd Al Qods , Casablanca",,07 66 11 35 45,07 66 11 35 45,05 22 21 93 18,alinarachange@gmail.com,"33.5413798,-7.595552",09:00-20:00,,09:00-20:00,,09:00-20:00,,09:00-20:00,,09:00-20:00,,09:00-20:00,,10:00-19:00
Casablanca,Change boulevard Al Qods,582 Boulevard Al Qods,,06 22 63 43 35,06 22 63 43 35,05 22 21 10 34,change.boulevardalqods582@gmail.com,"33.5383602,-7.6015536",09:30–14:00,15:00-20:30,09:30–14:00,15:00-20:30,09:30–14:00,15:00-20:30,09:30–14:00,15:00-20:30,09:30–14:00,15:00-20:30,09:30–14:00,15:00-20:30,Fermé
Casablanca,AF Exchange,"Residence Tasmine Californie 2, Batiment P, Rue Hachmi Al Filali Ain Chok,Ccasablanca",,06 61 65 22 86,06 61 65 22 86,05 22 52 09 31,,"33.5274362,-7.6180663",09:00-22:00,,09:00-22:00,,09:00-22:00,,09:00-22:00,,09:00-22:00,,09:00-22:00,,10:00-16:00
Casablanca,Patio Change,"102 Boulevard Haifa, Casablanca",,07 70 99 19 08,06 61 58 38 50,05 22 25 72 42,chngepatio@gmail.com,"33.5282156,-7.6085027",08:30-22:30,,08:30-22:30,,08:30-22:30,,08:30-22:30,,08:30-22:30,,08:30-23:00,,10:00-23:00
Casablanca,Hay Chrifa Change,"Magasin n°22 Imm 403 Assakan Anik, Rue Qods, Casablanca",,06 00 49 99 45,06 90 13 01 41,06 90 13 01 41,changechrifa@gmail.com,"33.5339447,-7.6117594",09:00-20:00,,09:00-20:00,,09:00-20:00,,09:00-20:00,,09:00-20:00,,09:00-20:00,,Fermé
Casablanca,W€ echange ,Moroco Mall rdv juste à côté du magasin Parfois,,06 80 34 11 26,06 80 34 11 26,06 80 34 11 26,,"33.5764312,-7.7066068",10:00-22:00,,10:00-22:00,,10:00-22:00,,10:00-22:00,,10:00-22:00,,10:00-22:00,,Fermé
Casablanca,Western Change,Marina Mal au RDC en face de Marjane.,,,,05 28 21 04 44,western.change.agadir@gmail.com,"33.6070662,-7.6216537",09:00-19:00,,09:00-19:00,,09:00-19:00,,09:00-19:00,,09:00-19:00,,09:00-19:00,,Fermé
Casablanca,Change Goulmima,"550 Rue de Goulmima, Casablanca 20040",,06 89 87 23 65,06 78 15 50 60,05 22 22 83 66,sarafgoulmima@gmail.com,"33.6004365,-7.6376372",08:30-21:00,,08:30-21:00,,08:30-21:00,,08:30-21:00,,08:30-21:00,,08:30-21:00,,08:30-21:00
Casablanca,Aya Change,"410 Bd Mohamed Zerktouni, Casablanca 20040",,06 60 69 40 65,06 60 69 40 65,06 91 56 09 03,,"33.6008156,-7.6387499",10:00-22:30,,10:00-22:30,,10:00-22:30,,10:00-22:30,,10:00–13:30,15:00-22:30,10:00-23:00,,12:00-22:30
Casablanca,Marina Change,"492 Bd Mohamed Zerktouni, Casablanca 20250",,06 23 11 47 42,06 23 11 47 42,05 22 22 03 40,info@marinachange.info,"33.6027644,-7.6393995",09:00-21:00,,09:00-21:00,,09:00-21:00,,09:00-21:00,,09:00-21:00,,09:00-21:00,,Fermé
Casablanca, Azha Change ,22 Rue Mohamed Kamal,,06 45 44 43 43,06 45 44 43 43,0522 26 10 60,,"33.596359,-7.6141535",09:00-19:00,,09:00-19:00,,09:00-19:00,,09:00-19:00,,09:00-19:00,,09:00-19:00,,Fermé
Casablanca,Al Baraka X Change ,"Bd Moulay Idriss I, Casablanca 20250",,,,05 22 85 56 61,,"33.5731911,-7.6121022",08:30-18:00,,08:30-18:00,,08:30-18:00,,08:30-18:00,,09:30–13:00,15:00-20:30,09:00-14:00,,Fermé
Casablanca,Al Baraka X Change - Belvèdére,"Rue Mohamed El Radi Slaoui, Casablanca 20250",,,,05 22 24 37 18 ,,"33.5923619,-7.59419",08:30-18:00,,08:30-18:00,,08:30-18:00,,08:30-18:00,,09:30–13:00,15:00-20:30,09:00-14:00,,Fermé
Casablanca,Abou Yassir Change,"A COTE DE LA MOSQUEE, Boulevard Mohamed V, Casablanca 20250",,06 42 47 47 38,06 42 47 47 38,06 42 47 47 38,,"33.5927821,-7.597912",09:00-20:00,,09:00-20:00,,09:00-20:00,,09:00-20:00,,09:00-20:00,,09:00-18:00,,Fermé
Casablanca,Comptoir du cash - Ghandi,"108 Bd Ghandi, Casablanca",,06 59 37 85 16,06 59 37 85 16,05 22 36 05 74,,"33.5745259,-7.6510176",09:00-19:30,,09:00-19:30,,09:00-19:30,,09:00-19:30,,09:00-19:30,,09:00-13:00,,Fermé
Casablanca,Comptoir du cash,"80 Bd Sidi Abderrahmane, Casablanca 20250",,06 51 85 19 26,06 51 85 19 26,05 22 36 71 20,,"33.5661905,-7.6725206",09:00-19:30,,09:00-19:30,,09:00-19:30,,09:00-19:30,,09:00-19:30,,09:00-13:00,,Fermé